{
    "links": {
        "self": "http://www.neowsapp.com/rest/v1/neo/3713999?api_key=iIulBulltgU6a56xZRHN4H3l9WmuAYTsLGpBGhQ2"
    },
    "id": "3713999",
    "neo_reference_id": "3713999",
    "name": "(2015 FA35)",
    "designation": "2015 FA35",
    "nasa_jpl_url": "http://ssd.jpl.nasa.gov/sbdb.cgi?sstr=3713999",
    "absolute_magnitude_h": 25.7,
    "estimated_diameter": {
        "kilometers": {
            "estimated_diameter_min": 0.0192555078,
            "estimated_diameter_max": 0.0430566244
        },
        "meters": {
            "estimated_diameter_min": 19.2555078188,
            "estimated_diameter_max": 43.0566244241
        },
        "miles": {
            "estimated_diameter_min": 0.0119648141,
            "estimated_diameter_max": 0.0267541378
        },
        "feet": {
            "estimated_diameter_min": 63.1742402722,
            "estimated_diameter_max": 141.2618956756
        }
    },
    "is_potentially_hazardous_asteroid": false,
    "close_approach_data": [
        {
            "close_approach_date": "2015-03-13",
            "close_approach_date_full": "2015-Mar-13 19:44",
            "epoch_date_close_approach": 1426275840000,
            "relative_velocity": {
                "kilometers_per_second": "16.651353044",
                "kilometers_per_hour": "59944.8709584569",
                "miles_per_hour": "37247.4116241589"
            },
            "miss_distance": {
                "astronomical": "0.0546974428",
                "lunar": "21.2773052492",
                "kilometers": "8182620.937326836",
                "miles": "5084444.8816128968"
            },
            "orbiting_body": "Earth"
        }
    ],
    "orbital_data": {
        "orbit_id": "4",
        "orbit_determination_date": "2017-04-06 08:34:58",
        "first_observation_date": "2015-03-16",
        "last_observation_date": "2015-03-23",
        "data_arc_in_days": 7,
        "observations_used": 27,
        "orbit_uncertainty": "8",
        "minimum_orbit_intersection": ".0545042",
        "jupiter_tisserand_invariant": "3.538",
        "epoch_osculation": "2457098.5",
        "eccentricity": ".5022507423409474",
        "semi_major_axis": "2.018864480468768",
        "inclination": "26.86450571646834",
        "ascending_node_longitude": "174.8519830989998",
        "orbital_period": "1047.753638521345",
        "perihelion_distance": "1.004888296467558",
        "perihelion_argument": "329.8795147232912",
        "aphelion_distance": "3.032840664469977",
        "perihelion_time": "2457071.391237014433",
        "mean_anomaly": "9.314360090008231",
        "mean_motion": ".3435922212668758",
        "equinox": "J2000",
        "orbit_class": {
            "orbit_class_type": "APO",
            "orbit_class_description": "Near-Earth asteroid orbits which cross the Earth’s orbit similar to that of 1862 Apollo",
            "orbit_class_range": "a (semi-major axis) > 1.0 AU; q (perihelion) < 1.017 AU"
        }
    },
    "is_sentry_object": false
}